STARLINK-36612          
1 67580U 26016V   26050.88255177  .00332620  00000+0  16629-2 0  9998
2 67580  97.2829 110.5420 0001572 120.5363 239.6061 15.80934206  4002
STARLINK-36632          
1 67581U 26016W   26050.64886010  .00235509  00000+0  15340-2 0  9996
2 67581  97.2839 110.2488 0002978  43.1889 316.9609 15.75228137  3963
STARLINK-36609          
1 67582U 26016X   26050.72825905  .00303409  00000+0  19609-2 0  9999
2 67582  97.2839 110.2926 0000965 136.8573 223.2768 15.75222248  3979
STARLINK-36577          
1 67583U 26016Y   26050.75447702  .00395908  00000+0  19707-2 0  9992
2 67583  97.2830 110.4098 0001918 134.2802 225.8624 15.80867169  3982
STARLINK-36419          
1 67584U 26016Z   26050.91670139 -.00074470  00000+0 -50244-3 0  9995
2 67584  97.2848 110.5703 0001068  75.8903  92.0955 15.75205420  5190
STARLINK-36560          
1 67585U 26016AA  26050.74875843  .00420703  00000+0  20884-2 0  9994
2 67585  97.2825 110.4188 0001857 155.5025 204.6332 15.80863334  3984
NAVSTAR 85 (USA 581)    
1 67588U 26017A   26048.53936881  .00000028  00000+0  00000+0 0  9991
2 67588  55.0081  93.5564 0000946  45.2724 314.8210  2.00561228429213
STARLINK-36641          
1 67589U 26018A   26050.89635941  .00031604  00000+0  21220-3 0  9993
2 67589  97.2836 115.7782 0001117  61.7833 298.3545 15.75165164  4507
STARLINK-36376          
1 67590U 26018B   26050.91670139 -.00142995  00000+0 -97096-3 0  9998
2 67590  97.2838 115.8448 0001398  90.5882 126.8533 15.75260364  4539
STARLINK-36391          
1 67591U 26018C   26050.93330036  .00235785  00000+0  11927-2 0  9996
2 67591  97.2831 115.8812 0000967 148.2708 211.8619 15.80925970  4512
STARLINK-36603          
1 67592U 26018D   26050.91670139 -.00074470  00000+0 -50249-3 0  9991
2 67592  97.2837 115.8544 0001379  85.1901 156.2572 15.75202261  4495
STARLINK-36634          
1 67593U 26018E   26050.86815888 -.00411792  00000+0 -22932-2 0  9997
2 67593  97.2838 115.8168 0001906  51.9800 308.1640 15.80416049  4507
